0 FENGYUN 1C DEB
1 30639U 99025ANW 13281.52515270  .00002243  00000-0  14338-2 0   362
2 30639 099.1539 278.7081 0105062 174.2212 308.9251 14.01840248340305
0 FENGYUN 1C DEB
1 30639U 99025ANW 13282.86694883  .00002232  00000-0  14261-2 0   372
2 30639 099.1539 280.0548 0105122 170.5305 240.4707 14.01850697340493
0 FENGYUN 1C DEB
1 30639U 99025ANW 13283.93975225  .00002520  00000-0  16062-2 0   385
2 30639 099.1539 281.1316 0105152 167.5810 254.5382 14.01854540340641
0 FENGYUN 1C DEB
1 30639U 99025ANW 13285.30843383  .00002265  00000-0  14461-2 0   395
2 30639 099.1540 282.5056 0105248 163.8005 321.8469 14.01861291340836
0 FENGYUN 1C DEB
1 30639U 99025ANW 13286.72126385  .00002636  00000-0  16787-2 0   405
2 30639 099.1538 283.9236 0105235 159.9236 251.9732 14.01866696341039
0 FENGYUN 1C DEB
1 30639U 99025ANW 13287.72140861  .00003098  00000-0  19670-2 0   419
2 30639 099.1537 284.9275 0105296 157.1608 259.4385 14.01872647341177
0 FENGYUN 1C DEB
1 30639U 99025ANW 13288.93611736  .00003282  00000-0  20817-2 0   428
2 30639 099.1536 286.1470 0105321 153.8082 269.7803 14.01880523341345
0 FENGYUN 1C DEB
1 30639U 99025ANW 13290.51861199  .00002984  00000-0  18950-2 0   439
2 30639 099.1540 287.7353 0105404 149.4387 336.2942 14.01890307341567
0 FENGYUN 1C DEB
1 30639U 99025ANW 13291.71813326  .00002851  00000-0  18113-2 0   446
2 30639 099.1545 288.9391 0105451 146.1358 270.0516 14.01895971341734
0 FENGYUN 1C DEB
1 30639U 99025ANW 13292.93179087  .00002944  00000-0  18694-2 0   458
2 30639 099.1549 290.1573 0105486 142.7819 275.1911 14.01901400341906
0 FENGYUN 1C DEB
1 30639U 99025ANW 13293.93263240  .00003083  00000-0  19562-2 0   465
2 30639 099.1553 291.1619 0105537 140.0054 286.3126 14.01906934342047
0 FENGYUN 1C DEB
1 30639U 99025ANW 13295.00361719  .00003186  00000-0  20200-2 0   471
2 30639 099.1558 292.2371 0105567 137.0663 291.4282 14.01912655342197
